CUBEBUG-2 (LO-74)       
1 39440U 13066AA  26158.75189183  .00005333  00000+0  49259-3 0  9995
2 39440  97.8907 107.6906 0059310  59.6684 301.0383 14.93689124675583
FUNCUBE-1 (AO-73)       
1 39444U 13066AE  26159.17346100  .00005422  00000+0  33894-3 0  9997
2 39444  97.8275 130.4319 0034724 232.3552 127.4524 15.09382626678308
UWE-3                   
1 39446U 13066AG  26159.12517313  .00004591  00000+0  39518-3 0  9995
2 39446  97.8687 115.1387 0048867 351.6421   8.3981 14.96953360676222
UNISAT-6                
1 40012U 14033C   26158.92201706  .00003516  00000+0  37971-3 0  9991
2 40012  97.7873 311.7985 0046450  98.9247 261.7232 14.88198016644780
DUCHIFAT-1              
1 40021U 14033M   26159.12664082  .00107166  00000+0  11780-2 0  9999
2 40021  98.0465 217.0282 0004621 132.1747 227.9902 15.62815586654330
QB50P1                  
1 40025U 14033R   26158.98870317  .00009215  00000+0  45488-3 0  9995
2 40025  98.0970 169.4906 0007153 252.8101 107.2349 15.18121687651633
LILACSAT-2              
1 40908U 15049K   26159.30617933  .00015058  00000+0  25943-3 0  9999
2 40908  97.4659 195.8117 0005279 288.2767  71.7910 15.51149254594378
FOX-1A (AO-85)          
1 40967U 15058D   26158.76074733  .00003179  00000+0  28859-3 0  9998
2 40967  64.7763 308.2774 0129935  60.2802 301.1167 14.90923768112168
CAS-2T & KS-1Q          
1 41847U 16066G   26159.16729182  .00001763  00000+0  25447-3 0  9993
2 41847  98.3822 235.0065 0342444 156.7734 204.9360 14.44664571503490
RADFXSAT (FOX-1B)       
1 43017U 17073E   26158.88082012  .00009506  00000+0  41497-3 0  9991
2 43017  97.4721  26.2863 0150955   1.5297 358.6365 15.12564477463981
DIWATA-2B               
1 43678U 18084H   26159.30027907  .00002208  00000+0  18066-3 0  9995
2 43678  98.1171 355.1234 0012019 199.3631 160.7137 15.00409149414888
ES'HAIL 2               
1 43700U 18090A   26158.90104546  .00000159  00000+0  00000+0 0  9996
2 43700   0.0153  51.7811 0001905  61.1895 133.5104  1.00273859 27587
FOX-1CLIFF (AO-95)      
1 43770U 18099N   26159.16339021  .00009417  00000+0  36286-3 0  9994
2 43770  97.4386 219.4444 0008916  30.0616 330.1133 15.26519996411843
ITASAT                  
1 43786U 18099AE  26159.12858900  .00007372  00000+0  35522-3 0  9999
2 43786  97.4031 210.8218 0013094  31.6283 328.5736 15.18945561411539
JY1SAT (JO-97)          
1 43803U 18099AX  26159.15623610  .00013771  00000+0  42915-3 0  9994
2 43803  97.4132 221.9612 0004245 308.5713  51.5149 15.33366005412241
UWE-4                   
1 43880U 18111E   26158.76428061  .00033394  00000+0  69481-3 0  9993
2 43880  97.5856  86.7246 0007277  18.3165 341.8344 15.45534783409325
TIANYAN 01              
1 44881U 19093C   26159.29406848  .00001419  00000+0  16614-3 0  9996
2 44881  97.7526 231.7429 0014914 113.3523 246.9264 14.86506865350097
RS-44 & BREEZE-KM R/B   
1 44909U 19096E   26159.01431069  .00000019  00000+0  26984-4 0  9990
2 44909  82.5217 345.8017 0217755 165.5613 195.1847 12.79748641301171
SALSAT                  
1 46495U 20068K   26158.98778249  .00008175  00000+0  28698-3 0  9996
2 46495  97.8853 161.4934 0008911 345.1768  14.9208 15.29667638313959
XW-3 (CAS-9)            
1 50466U 21131B   26159.30776868  .00000630  00000+0  20820-3 0  9990
2 50466  98.4972 251.7458 0005235 117.0541 243.1183 14.41350030233830
GREENCUBE (IO-117)      
1 53109U 22080E   26152.46502029 -.00000003  00000+0  00000+0 0  9996
2 53109  70.1435 303.7143 0008869 293.3663  66.6064  6.42583280 91055
UMKA 1 (RS40S)          
1 57172U 23091G   26159.21114342  .00005472  00000+0  25143-3 0  9993
2 57172  97.5052 217.9434 0013801 145.7962 214.4165 15.20714145162641
CUBESX-HSE 3 (RS42S)    
1 57178U 23091N   26159.22028748  .00011110  00000+0  37278-3 0  9992
2 57178  97.5093 224.6956 0012134 122.3134 237.9284 15.30986825163051
MONITOR-3 (RS58S)       
1 57180U 23091Q   26159.15962482  .00008547  00000+0  31813-3 0  9998
2 57180  97.5085 222.5406 0013031 128.6737 231.5670 15.27658283162910
MONITOR-4 (RS57S)       
1 57182U 23091S   26159.27019948  .00009318  00000+0  34555-3 0  9996
2 57182  97.5079 222.6226 0012990 128.6259 231.6145 15.27754931162935
MONITOR-2 (RS39S)       
1 57184U 23091U   26159.22119481  .00004570  00000+0  22237-3 0  9995
2 57184  97.5075 217.5626 0012368 138.6084 221.6089 15.18827027162591
SVYATOBOR 1 (RS60S)     
1 57187U 23091X   26159.21014342  .00007895  00000+0  30513-3 0  9996
2 57187  97.5090 222.9784 0010838 121.2914 238.9387 15.26460954162948
VIZARD-METEO (RS38S)    
1 57189U 23091Z   26159.28707688  .00014757  00000+0  42605-3 0  9997
2 57189  97.5092 228.5958 0008704 104.1535 256.0676 15.35740799163328
POLYTECH-UNIVERSE 3 (R*)
1 57191U 23091AB  26159.24957994  .00004950  00000+0  23890-3 0  9992
2 57191  97.5050 217.0953 0016286 155.6276 204.5732 15.19026486162591
UTMN 2 (RS27S)          
1 57203U 23091AP  26159.24279230  .00011043  00000+0  36128-3 0  9995
2 57203  97.5088 226.3413 0009488 110.2286 249.9976 15.31830343163171
