OBJECT_NAME,OBJECT_ID,EPOCH,MEAN_MOTION,ECCENTRICITY,INCLINATION,RA_OF_ASC_NODE,ARG_OF_PERICENTER,MEAN_ANOMALY,EPHEMERIS_TYPE,CLASSIFICATION_TYPE,NORAD_CAT_ID,ELEMENT_SET_NO,REV_AT_EPOCH,BSTAR,MEAN_MOTION_DOT,MEAN_MOTION_DDOT
CUBEBUG-2 (LO-74),2013-066AA,2026-06-07T18:02:43.454112,14.93689124,.00593101,97.8907,107.6906,59.6684,301.0383,0,U,39440,999,67558,.49259445E-3,.5333E-4,0
FUNCUBE-1 (AO-73),2013-066AE,2026-06-08T04:09:47.030400,15.09382626,.00347242,97.8275,130.4319,232.3552,127.4524,0,U,39444,999,67830,.33894041E-3,.5422E-4,0
UWE-3,2013-066AG,2026-06-08T03:00:14.958432,14.96953360,.00488677,97.8687,115.1387,351.6421,8.3981,0,U,39446,999,67622,.3951752E-3,.4591E-4,0
UNISAT-6,2014-033C,2026-06-07T22:07:42.273984,14.88198016,.004645,97.7873,311.7985,98.9247,261.7232,0,U,40012,999,64478,.37971274E-3,.3516E-4,0
DUCHIFAT-1,2014-033M,2026-06-08T03:02:21.766848,15.62815586,.00046211,98.0465,217.0282,132.1747,227.9902,0,U,40021,999,65433,.11779944E-2,.107166E-2,0
QB50P1,2014-033R,2026-06-07T23:43:43.953888,15.18121687,.00071533,98.0970,169.4906,252.8101,107.2349,0,U,40025,999,65163,.45487776E-3,.9215E-4,0
LILACSAT-2,2015-049K,2026-06-08T07:20:53.894112,15.51149254,.00052798,97.4659,195.8117,288.2767,71.7910,0,U,40908,999,59437,.2594275E-3,.15058E-3,0
FOX-1A (AO-85),2015-058D,2026-06-07T18:15:28.569312,14.90923768,.01299354,64.7763,308.2774,60.2802,301.1167,0,U,40967,999,11216,.28859398E-3,.3179E-4,0
CAS-2T & KS-1Q,2016-066G,2026-06-08T04:00:54.013248,14.44664571,.03424446,98.3822,235.0065,156.7734,204.9360,0,U,41847,999,50349,.25447205E-3,.1763E-4,0
RADFXSAT (FOX-1B),2017-073E,2026-06-07T21:08:22.858368,15.12564477,.01509554,97.4721,26.2863,1.5297,358.6365,0,U,43017,999,46398,.41497429E-3,.9506E-4,0
DIWATA-2B,2018-084H,2026-06-08T07:12:24.111648,15.00409149,.00120191,98.1171,355.1234,199.3631,160.7137,0,U,43678,999,41488,.18066239E-3,.2208E-4,0
ES'HAIL 2,2018-090A,2026-06-07T21:37:30.327744,1.00273859,.00019055,0.0153,51.7811,61.1895,133.5104,0,U,43700,999,2758,0,.159E-5,0
FOX-1CLIFF (AO-95),2018-099N,2026-06-08T03:55:16.914144,15.26519996,.00089161,97.4386,219.4444,30.0616,330.1133,0,U,43770,999,41184,.36285683E-3,.9417E-4,0
ITASAT,2018-099AE,2026-06-08T03:05:10.089600,15.18945561,.00130947,97.4031,210.8218,31.6283,328.5736,0,U,43786,999,41153,.35521857E-3,.7372E-4,0
JY1SAT (JO-97),2018-099AX,2026-06-08T03:44:58.799040,15.33366005,.00042451,97.4132,221.9612,308.5713,51.5149,0,U,43803,999,41224,.42914797E-3,.13771E-3,0
UWE-4,2018-111E,2026-06-07T18:20:33.844704,15.45534783,.00072776,97.5856,86.7246,18.3165,341.8344,0,U,43880,999,40932,.69480709E-3,.33394E-3,0
TIANYAN 01,2019-093C,2026-06-08T07:03:27.516672,14.86506865,.00149142,97.7526,231.7429,113.3523,246.9264,0,U,44881,999,35009,.16614328E-3,.1419E-4,0
RS-44 & BREEZE-KM R/B,2019-096E,2026-06-08T00:20:36.443616,12.79748641,.02177556,82.5217,345.8017,165.5613,195.1847,0,U,44909,999,30117,.26983768E-4,.19E-6,0
SALSAT,2020-068K,2026-06-07T23:42:24.407136,15.29667638,.00089117,97.8853,161.4934,345.1768,14.9208,0,U,46495,999,31395,.28698063E-3,.8175E-4,0
XW-3 (CAS-9),2021-131B,2026-06-08T07:23:11.213952,14.41350030,.00052352,98.4972,251.7458,117.0541,243.1183,0,U,50466,999,23383,.20820273E-3,.63E-5,0
GREENCUBE (IO-117),2022-080E,2026-06-01T11:09:37.753056,6.42583280,.00088692,70.1435,303.7143,293.3663,66.6064,0,U,53109,999,9105,0,-.3E-7,0
UMKA 1 (RS40S),2023-091G,2026-06-08T05:04:02.791488,15.20714145,.00138011,97.5052,217.9434,145.7962,214.4165,0,U,57172,999,16264,.25143435E-3,.5472E-4,0
CUBESX-HSE 3 (RS42S),2023-091N,2026-06-08T05:17:12.838272,15.30986825,.00121346,97.5093,224.6956,122.3134,237.9284,0,U,57178,999,16305,.37277873E-3,.1111E-3,0
MONITOR-3 (RS58S),2023-091Q,2026-06-08T03:49:51.584448,15.27658283,.00130314,97.5085,222.5406,128.6737,231.5670,0,U,57180,999,16291,.31812971E-3,.8547E-4,0
MONITOR-4 (RS57S),2023-091S,2026-06-08T06:29:05.235072,15.27754931,.00129907,97.5079,222.6226,128.6259,231.6145,0,U,57182,999,16293,.34554693E-3,.9318E-4,0
MONITOR-2 (RS39S),2023-091U,2026-06-08T05:18:31.231584,15.18827027,.00123687,97.5075,217.5626,138.6084,221.6089,0,U,57184,999,16259,.22237439E-3,.457E-4,0
SVYATOBOR 1 (RS60S),2023-091X,2026-06-08T05:02:36.391488,15.26460954,.00108386,97.5090,222.9784,121.2914,238.9387,0,U,57187,999,16294,.30512784E-3,.7895E-4,0
VIZARD-METEO (RS38S),2023-091Z,2026-06-08T06:53:23.442432,15.35740799,.00087042,97.5092,228.5958,104.1535,256.0676,0,U,57189,999,16332,.42605027E-3,.14757E-3,0
POLYTECH-UNIVERSE 3 (RS46S),2023-091AB,2026-06-08T05:59:23.706816,15.19026486,.00162866,97.5050,217.0953,155.6276,204.5732,0,U,57191,999,16259,.23889897E-3,.495E-4,0
UTMN 2 (RS27S),2023-091AP,2026-06-08T05:49:37.254720,15.31830343,.00094881,97.5088,226.3413,110.2286,249.9976,0,U,57203,999,16317,.36128351E-3,.11043E-3,0
